{
  "type": "FeatureCollection",
  "features": [
    {
      "type": "Feature",
      "properties": {
        "norad_id": 44334,
        "name": "EUTELSAT 7C",
        "group": "eutelsat",
        "lat": 0.034833314115684744,
        "lon": -127.93259301553793,
        "alt_km": 35772.242126360106,
        "timestamp": "2025-12-09T09:46:47.318640+00:00",
        "meta_object_name": "EUTELSAT 7C",
        "meta_object_id": "2019-034B",
        "meta_epoch": "2025-12-09T03:20:00.432096",
        "meta_mean_motion": 1.00270641,
        "meta_eccentricity": 0.0003397,
        "meta_inclination": 0.0734,
        "meta_ra_of_asc_node": 180.1669,
        "meta_arg_of_pericenter": 62.1617,
        "meta_mean_anomaly": 252.7903,
        "meta_ephemeris_type": 0,
        "meta_classification_type": "U",
        "meta_norad_cat_id": 44334,
        "meta_element_set_no": 999,
        "meta_rev_at_epoch": 493,
        "meta_bstar": 0,
        "meta_mean_motion_dot": 5e-07,
        "meta_mean_motion_ddot": 0,
        "tle_line1": "1 44334U 19034B   25343.13889389  .00000050  00000+0  00000+0 0  9994",
        "tle_line2": "2 44334   0.0734 180.1669 0003397  62.1617 252.7903  1.00270641  4935"
      },
      "geometry": {
        "type": "Point",
        "coordinates": [
          -127.93259301553793,
          0.034833314115684744
        ]
      }
    },
    {
      "type": "Feature",
      "properties": {
        "norad_id": 44624,
        "name": "EUTELSAT 5 WEST B",
        "group": "eutelsat",
        "lat": -0.07278623416272419,
        "lon": -139.93355236052125,
        "alt_km": 35774.65402292267,
        "timestamp": "2025-12-09T09:46:47.318685+00:00",
        "meta_object_name": "EUTELSAT 5 WEST B",
        "meta_object_id": "2019-067A",
        "meta_epoch": "2025-12-08T22:08:22.438752",
        "meta_mean_motion": 1.00270995,
        "meta_eccentricity": 0.00035282,
        "meta_inclination": 0.0644,
        "meta_ra_of_asc_node": 340.9663,
        "meta_arg_of_pericenter": 277.8642,
        "meta_mean_anomaly": 146.1846,
        "meta_ephemeris_type": 0,
        "meta_classification_type": "U",
        "meta_norad_cat_id": 44624,
        "meta_element_set_no": 999,
        "meta_rev_at_epoch": 2252,
        "meta_bstar": 0,
        "meta_mean_motion_dot": -4e-07,
        "meta_mean_motion_ddot": 0,
        "tle_line1": "1 44624U 19067A   25342.92248193 -.00000040  00000+0  00000+0 0  9990",
        "tle_line2": "2 44624   0.0644 340.9663 0003528 277.8642 146.1846  1.00270995 22525"
      },
      "geometry": {
        "type": "Point",
        "coordinates": [
          -139.93355236052125,
          -0.07278623416272419
        ]
      }
    },
    {
      "type": "Feature",
      "properties": {
        "norad_id": 45027,
        "name": "EUTELSAT KONNECT",
        "group": "eutelsat",
        "lat": 0.025832004683500547,
        "lon": -127.73016244786709,
        "alt_km": 35782.34949894487,
        "timestamp": "2025-12-09T09:46:47.318708+00:00",
        "meta_object_name": "EUTELSAT KONNECT",
        "meta_object_id": "2020-005B",
        "meta_epoch": "2025-12-09T03:20:07.920384",
        "meta_mean_motion": 1.00268789,
        "meta_eccentricity": 0.0001779,
        "meta_inclination": 0.0699,
        "meta_ra_of_asc_node": 96.7799,
        "meta_arg_of_pericenter": 188.4492,
        "meta_mean_anomaly": 210.1344,
        "meta_ephemeris_type": 0,
        "meta_classification_type": "U",
        "meta_norad_cat_id": 45027,
        "meta_element_set_no": 999,
        "meta_rev_at_epoch": 2243,
        "meta_bstar": 0,
        "meta_mean_motion_dot": 5.1e-07,
        "meta_mean_motion_ddot": 0,
        "tle_line1": "1 45027U 20005B   25343.13898056  .00000051  00000+0  00000+0 0  9996",
        "tle_line2": "2 45027   0.0699  96.7799 0001779 188.4492 210.1344  1.00268789 22438"
      },
      "geometry": {
        "type": "Point",
        "coordinates": [
          -127.73016244786709,
          0.025832004683500547
        ]
      }
    },
    {
      "type": "Feature",
      "properties": {
        "norad_id": 49056,
        "name": "EUTELSAT QUANTUM",
        "group": "eutelsat",
        "lat": -0.030834592694013584,
        "lon": -87.21187741669767,
        "alt_km": 35770.95865058237,
        "timestamp": "2025-12-09T09:46:47.318729+00:00",
        "meta_object_name": "EUTELSAT QUANTUM",
        "meta_object_id": "2021-069B",
        "meta_epoch": "2025-12-08T22:01:38.706240",
        "meta_mean_motion": 1.00269257,
        "meta_eccentricity": 0.00037286,
        "meta_inclination": 0.0122,
        "meta_ra_of_asc_node": 10.7312,
        "meta_arg_of_pericenter": 261.56,
        "meta_mean_anomaly": 183.7356,
        "meta_ephemeris_type": 0,
        "meta_classification_type": "U",
        "meta_norad_cat_id": 49056,
        "meta_element_set_no": 999,
        "meta_rev_at_epoch": 1602,
        "meta_bstar": 0,
        "meta_mean_motion_dot": 1.28e-06,
        "meta_mean_motion_ddot": 0,
        "tle_line1": "1 49056U 21069B   25342.91780910  .00000128  00000+0  00000+0 0  9992",
        "tle_line2": "2 49056   0.0122  10.7312 0003728 261.5600 183.7356  1.00269257 16029"
      },
      "geometry": {
        "type": "Point",
        "coordinates": [
          -87.21187741669767,
          -0.030834592694013584
        ]
      }
    },
    {
      "type": "Feature",
      "properties": {
        "norad_id": 53765,
        "name": "EUTELSAT KONNECT VHTS",
        "group": "eutelsat",
        "lat": 0.027926870904670865,
        "lon": -132.20620569305595,
        "alt_km": 35775.48890154286,
        "timestamp": "2025-12-09T09:46:47.318749+00:00",
        "meta_object_name": "EUTELSAT KONNECT VHTS",
        "meta_object_id": "2022-110A",
        "meta_epoch": "2025-12-09T03:18:45.550080",
        "meta_mean_motion": 1.00270735,
        "meta_eccentricity": 0.0002616,
        "meta_inclination": 0.0631,
        "meta_ra_of_asc_node": 102.664,
        "meta_arg_of_pericenter": 135.7295,
        "meta_mean_anomaly": 252.1373,
        "meta_ephemeris_type": 0,
        "meta_classification_type": "U",
        "meta_norad_cat_id": 53765,
        "meta_element_set_no": 999,
        "meta_rev_at_epoch": 492,
        "meta_bstar": 0,
        "meta_mean_motion_dot": 1.9e-07,
        "meta_mean_motion_ddot": 0,
        "tle_line1": "1 53765U 22110A   25343.13802720  .00000019  00000+0  00000+0 0  9990",
        "tle_line2": "2 53765   0.0631 102.6640 0002616 135.7295 252.1373  1.00270735  4927"
      },
      "geometry": {
        "type": "Point",
        "coordinates": [
          -132.20620569305595,
          0.027926870904670865
        ]
      }
    },
    {
      "type": "Feature",
      "properties": {
        "norad_id": 54048,
        "name": "EUTELSAT HOTBIRD 13F",
        "group": "eutelsat",
        "lat": -0.05536672038384859,
        "lon": -121.91219320497387,
        "alt_km": 35789.83378815849,
        "timestamp": "2025-12-09T09:46:47.318762+00:00",
        "meta_object_name": "EUTELSAT HOTBIRD 13F",
        "meta_object_id": "2022-134A",
        "meta_epoch": "2025-12-08T15:22:42.049344",
        "meta_mean_motion": 1.00271424,
        "meta_eccentricity": 0.0002045,
        "meta_inclination": 0.0486,
        "meta_ra_of_asc_node": 292.2851,
        "meta_arg_of_pericenter": 61.4058,
        "meta_mean_anomaly": 327.6443,
        "meta_ephemeris_type": 0,
        "meta_classification_type": "U",
        "meta_norad_cat_id": 54048,
        "meta_element_set_no": 999,
        "meta_rev_at_epoch": 1146,
        "meta_bstar": 0,
        "meta_mean_motion_dot": 8.9e-07,
        "meta_mean_motion_ddot": 0,
        "tle_line1": "1 54048U 22134A   25342.64076446  .00000089  00000+0  00000+0 0  9991",
        "tle_line2": "2 54048   0.0486 292.2851 0002045  61.4058 327.6443  1.00271424 11467"
      },
      "geometry": {
        "type": "Point",
        "coordinates": [
          -121.91219320497387,
          -0.05536672038384859
        ]
      }
    },
    {
      "type": "Feature",
      "properties": {
        "norad_id": 54225,
        "name": "EUTELSAT HOTBIRD 13G",
        "group": "eutelsat",
        "lat": -0.019058085210992674,
        "lon": -121.89772012895283,
        "alt_km": 35781.38408516015,
        "timestamp": "2025-12-09T09:46:47.318775+00:00",
        "meta_object_name": "EUTELSAT HOTBIRD 13G",
        "meta_object_id": "2022-146A",
        "meta_epoch": "2025-12-08T15:22:42.049344",
        "meta_mean_motion": 1.00270657,
        "meta_eccentricity": 0.0001883,
        "meta_inclination": 0.0488,
        "meta_ra_of_asc_node": 235.9302,
        "meta_arg_of_pericenter": 310.6832,
        "meta_mean_anomaly": 134.7005,
        "meta_ephemeris_type": 0,
        "meta_classification_type": "U",
        "meta_norad_cat_id": 54225,
        "meta_element_set_no": 999,
        "meta_rev_at_epoch": 555,
        "meta_bstar": 0,
        "meta_mean_motion_dot": 8.9e-07,
        "meta_mean_motion_ddot": 0,
        "tle_line1": "1 54225U 22146A   25342.64076446  .00000089  00000+0  00000+0 0  9991",
        "tle_line2": "2 54225   0.0488 235.9302 0001883 310.6832 134.7005  1.00270657  5550"
      },
      "geometry": {
        "type": "Point",
        "coordinates": [
          -121.89772012895283,
          -0.019058085210992674
        ]
      }
    }
  ]
}